NORAD_CAT_ID,OBJECT_NAME,OBJECT_TYPE,EPOCH,MEAN_MOTION,ECCENTRICITY,INCLINATION,RA_OF_ASC_NODE,ARG_OF_PERICENTER,MEAN_ANOMALY,BSTAR,MEAN_MOTION_DOT,MEAN_MOTION_DDOT,TLE_LINE0,TLE_LINE1,TLE_LINE2,SEMIMAJOR_AXIS,PERIOD,APOGEE,PERIGEE,DECAYED
51152.0,STARLINK-3364,PAYLOAD,2022-06-29 21:23:11,15.088434,0.0001849,53.2162,244.1091,42.3596,317.7538,-2.3187e-05,-6.57e-06,0.0,0 STARLINK-3364,1 51152U 22005BA  22180.89110053 -.00000657  00000-0 -23187-4 0  9998,2 51152  53.2162 244.1091 0001849  42.3596 317.7538 15.08843400 24976,6917.87,95.437,541.014,538.456,0.0
51152.0,STARLINK-3364,PAYLOAD,2022-06-30 13:17:02,15.08839617,0.0001893,53.2164,241.1357,41.258,318.8555,9.3217e-05,1.196e-05,0.0,0 STARLINK-3364,1 51152U 22005BA  22181.55350133  .00001196  00000-0  93217-4 0  9995,2 51152  53.2164 241.1357 0001893  41.2580 318.8555 15.08839617 25078,6917.882,95.438,541.056,538.437,0.0
51152.0,STARLINK-3364,PAYLOAD,2022-07-01 09:57:02,15.08845993,0.0001897,53.2162,237.2697,41.9075,318.2062,8.868299999999999e-05,1.124e-05,0.0,0 STARLINK-3364,1 51152U 22005BA  22182.41461573  .00001124  00000-0  88683-4 0  9994,2 51152  53.2162 237.2697 0001897  41.9075 318.2062 15.08845993 25205,6917.861999999999,95.437,541.039,538.415,0.0
51152.0,STARLINK-3364,PAYLOAD,2022-07-01 21:04:44,15.08848734,0.0001953,53.2163,235.1886,42.4609,317.6534,8.6719e-05,1.093e-05,0.0,0 STARLINK-3364,1 51152U 22005BA  22182.87829159  .00001093  00000-0  86719-4 0  9995,2 51152  53.2163 235.1886 0001953  42.4609 317.6534 15.08848734 25275,6917.854,95.437,541.07,538.368,0.0
51152.0,STARLINK-3364,PAYLOAD,2022-07-02 12:58:36,15.08838808,0.0001976,53.2165,232.2155,46.4324,313.6832,-2.8621e-05,-7.44e-06,0.0,0 STARLINK-3364,1 51152U 22005BA  22183.54070021 -.00000744  00000-0 -28621-4 0  9998,2 51152  53.2165 232.2155 0001976  46.4324 313.6832 15.08838808 25376,6917.884,95.438,541.116,538.382,0.0
51152.0,STARLINK-3364,PAYLOAD,2022-07-03 03:17:04,15.08845613,0.0001995,53.217,229.5392,47.463,312.6531,4.4845e-06,-2.17e-06,0.0,0 STARLINK-3364,1 51152U 22005BA  22184.13685341 -.00000217  00000-0  44845-5 0  9992,2 51152  53.2170 229.5392 0001995  47.4630 312.6531 15.08845613 26576,6917.863,95.437,541.1080000000002,538.3480000000002,0.0
51152.0,STARLINK-3364,PAYLOAD,2022-07-03 12:49:22,15.08844626,0.0002028,53.2168,227.7555,45.6253,314.4905,-4.5546e-06,-3.61e-06,0.0,0 STARLINK-3364,1 51152U 22005BA  22184.53429301 -.00000361  00000-0 -45546-5 0  9998,2 51152  53.2168 227.7555 0002028  45.6253 314.4905 15.08844626 25525,6917.866,95.437,541.134,538.328,0.0
51152.0,STARLINK-3364,PAYLOAD,2022-07-04 09:29:24,15.08829987,0.0001988,53.2158,223.8884,39.0593,321.0543,-1.6944000000000002e-05,-5.58e-06,0.0,0 STARLINK-3364,1 51152U 22005BA  22185.39542251 -.00000558  00000-0 -16944-4 0  9990,2 51152  53.2158 223.8884 0001988  39.0593 321.0543 15.08829987 26766,6917.911,95.438,541.151,538.401,0.0
51152.0,STARLINK-3364,PAYLOAD,2022-07-04 19:01:43,15.08830596,0.0002019,53.216,222.1046,39.7251,320.3888,-2.0279e-05,-6.11e-06,0.0,0 STARLINK-3364,1 51152U 22005BA  22185.79286445 -.00000611  00000-0 -20279-4 0  9990,2 51152  53.2160 222.1046 0002019  39.7251 320.3888 15.08830596 25711,6917.909000000002,95.438,541.1709999999998,538.377,0.0
51152.0,STARLINK-3364,PAYLOAD,2022-07-05 10:55:34,15.0883453,0.0002038,53.2158,219.1307,39.0284,321.0855,-2.3581e-05,-6.63e-06,0.0,0 STARLINK-3364,1 51152U 22005BA  22186.45526503 -.00000663  00000-0 -23581-4 0  9992,2 51152  53.2158 219.1307 0002038  39.0284 321.0855 15.08834530 25819,6917.897,95.438,541.172,538.352,0.0
51152.0,STARLINK-3364,PAYLOAD,2022-07-05 18:52:30,15.08835457,0.0002054,53.2158,217.6439,39.2445,320.8696,-2.5698e-05,-6.97e-06,0.0,0 STARLINK-3364,1 51152U 22005BA  22186.78646568 -.00000697  00000-0 -25698-4 0  9990,2 51152  53.2158 217.6439 0002054  39.2445 320.8696 15.08835457 25861,6917.894,95.438,541.18,538.3380000000002,0.0
51152.0,STARLINK-3364,PAYLOAD,2022-07-06 12:21:45,15.08831825,0.0002064,53.2157,214.3728,39.4454,320.6688,7.6527e-05,9.3e-06,0.0,0 STARLINK-3364,1 51152U 22005BA  22187.51510853  .00000930  00000-0  76527-4 0  9994,2 51152  53.2157 214.3728 0002064  39.4454 320.6688 15.08831825 27088,6917.905,95.438,541.198,538.3430000000002,0.0
51152.0,STARLINK-3364,PAYLOAD,2022-07-06 18:43:17,15.08832868,0.0002082,53.2158,213.1833,39.629,320.4854,8.3775e-05,1.045e-05,0.0,0 STARLINK-3364,1 51152U 22005BA  22187.78006908  .00001045  00000-0  83775-4 0  9995,2 51152  53.2158 213.1833 0002082  39.6290 320.4854 15.08832868 26016,6917.901999999999,95.438,541.207,538.327,0.0
51152.0,STARLINK-3364,PAYLOAD,2022-07-07 10:37:09,15.08836476,0.0002117,53.2157,210.2095,40.6333,319.4817,7.3365e-05,8.79e-06,0.0,0 STARLINK-3364,1 51152U 22005BA  22188.44246983  .00000879  00000-0  73365-4 0  9996,2 51152  53.2157 210.2095 0002117  40.6333 319.4817 15.08836476 26119,6917.891,95.438,541.221,538.2919999999998,0.0
51152.0,STARLINK-3364,PAYLOAD,2022-07-07 18:34:04,15.08839433,0.0002172,53.2157,208.7225,39.9593,320.1558,8.713e-05,1.099e-05,0.0,0 STARLINK-3364,1 51152U 22005BA  22188.77366879  .00001099  00000-0  87130-4 0  9999,2 51152  53.2157 208.7225 0002172  39.9593 320.1558 15.08839433 27271,6917.882,95.438,541.25,538.245,0.0
51152.0,STARLINK-3364,PAYLOAD,2022-07-08 10:27:56,15.08844165,0.0002184,53.2156,205.7488,41.0302,319.0854,9.2309e-05,1.181e-05,0.0,0 STARLINK-3364,1 51152U 22005BA  22189.43606540  .00001181  00000-0  92309-4 0  9991,2 51152  53.2156 205.7488 0002184  41.0302 319.0854 15.08844165 26265,6917.868,95.437,541.244,538.222,0.0
51152.0,STARLINK-3364,PAYLOAD,2022-07-08 18:24:51,15.08845701,0.0002178,53.2157,204.262,42.7239,317.3922,0.0001039,1.366e-05,0.0,0 STARLINK-3364,1 51152U 22005BA  22189.76726334  .00001366  00000-0  10390-3 0  9995,2 51152  53.2157 204.2620 0002178  42.7239 317.3922 15.08845701 26318,6917.863,95.437,541.235,538.221,0.0
51152.0,STARLINK-3364,PAYLOAD,2022-07-09 03:57:10,15.088483600000002,0.0002192,53.2157,202.4778,43.4311,316.6854,0.00010831,1.436e-05,0.0,0 STARLINK-3364,1 51152U 22005BA  22190.16470029  .00001436  00000-0  10831-3 0  9996,2 51152  53.2157 202.4778 0002192  43.4311 316.6854 15.08848360 27486,6917.855,95.437,541.236,538.203,0.0
51152.0,STARLINK-3364,PAYLOAD,2022-07-09 10:18:42,15.08846412,0.0002218,53.2157,201.2888,42.3766,317.7397,8.225700000000001e-05,1.021e-05,0.0,0 STARLINK-3364,1 51152U 22005BA  22190.42966134  .00001021  00000-0  82257-4 0  9994,2 51152  53.2157 201.2888 0002218  42.3766 317.7397 15.08846412 26418,6917.861,95.437,541.26,538.191,0.0
51152.0,STARLINK-3364,PAYLOAD,2022-07-09 18:15:39,15.08834367,0.0002274,53.2152,199.802,41.8718,318.2448,-3.099e-05,-7.81e-06,0.0,0 STARLINK-3364,1 51152U 22005BA  22190.76087180 -.00000781  00000-0 -30990-4 0  9997,2 51152  53.2152 199.8020 0002274  41.8718 318.2448 15.08834367 26460,6917.898,95.438,541.336,538.189,0.0
51152.0,STARLINK-3364,PAYLOAD,2022-07-10 10:09:30,15.08838117,0.0002237,53.2156,196.8281,42.5903,317.5262,-1.2055e-05,-4.8e-06,0.0,0 STARLINK-3364,1 51152U 22005BA  22191.42326983 -.00000480  00000-0 -12055-4 0  9996,2 51152  53.2156 196.8281 0002237  42.5903 317.5262 15.08838117 26567,6917.886,95.438,541.299,538.2040000000002,0.0
51152.0,STARLINK-3364,PAYLOAD,2022-07-11 03:38:44,15.08840283,0.0002254,53.2155,193.5575,41.8752,318.2412,-1.1067e-05,-4.64e-06,0.0,0 STARLINK-3364,1 51152U 22005BA  22192.15190878 -.00000464  00000-0 -11067-4 0  9993,2 51152  53.2155 193.5575 0002254  41.8752 318.2412 15.08840283 27786,6917.88,95.438,541.304,538.185,0.0
51152.0,STARLINK-3364,PAYLOAD,2022-07-11 10:00:17,15.08837977,0.0002261,53.2156,192.368,43.7195,316.3976,4.4801000000000014e-05,4.25e-06,0.0,0 STARLINK-3364,1 51152U 22005BA  22192.41686863  .00000425  00000-0  44801-4 0  9993,2 51152  53.2156 192.3680 0002261  43.7195 316.3976 15.08837977 26713,6917.887,95.438,541.316,538.187,0.0
51152.0,STARLINK-3364,PAYLOAD,2022-07-12 09:51:04,15.08842355,0.0002319,53.2159,187.9071,45.3482,314.7699,0.00013729,1.898e-05,0.0,0 STARLINK-3364,1 51152U 22005BA  22193.41046622  .00001898  00000-0  13729-3 0  9996,2 51152  53.2159 187.9071 0002319  45.3482 314.7699 15.08842355 27970,6917.873000000001,95.437,541.342,538.134,0.0
51152.0,STARLINK-3364,PAYLOAD,2022-07-12 16:12:36,15.08844791,0.000233,53.216,186.7176,45.7188,314.3995,0.0001458,2.033e-05,0.0,0 STARLINK-3364,1 51152U 22005BA  22193.67542463  .00002033  00000-0  14580-3 0  9996,2 51152  53.2160 186.7176 0002330  45.7188 314.3995 15.08844791 26908,6917.866,95.437,541.3430000000002,538.119,0.0
51152.0,STARLINK-3364,PAYLOAD,2022-07-13 08:06:28,15.0884363,0.0002254,53.2161,183.7436,42.8504,317.2663,9.6292e-05,1.245e-05,0.0,0 STARLINK-3364,1 51152U 22005BA  22194.33782517  .00001245  00000-0  96292-4 0  9991,2 51152  53.2161 183.7436 0002254  42.8504 317.2663 15.08843630 27007,6917.869000000002,95.437,541.294,538.175,0.0
51152.0,STARLINK-3364,PAYLOAD,2022-07-13 16:03:24,15.08839512,0.0002197,53.2158,182.2565,43.2145,316.9019,-4.312e-05,-9.75e-06,0.0,0 STARLINK-3364,1 51152U 22005BA  22194.66903029 -.00000975  00000-0 -43120-4 0  9993,2 51152  53.2158 182.2565 0002197  43.2145 316.9019 15.08839512 28165,6917.882,95.438,541.2669999999998,538.227,0.0
51152.0,STARLINK-3364,PAYLOAD,2022-07-14 09:32:38,15.08841494,0.0002303,53.216,178.9858,45.8604,314.2577,3.0656e-05,2e-06,0.0,0 STARLINK-3364,1 51152U 22005BA  22195.39766742  .00000200  00000-0  30656-4 0  9992,2 51152  53.2160 178.9858 0002303  45.8604 314.2577 15.08841494 27163,6917.876,95.437,541.3340000000002,538.148,0.0
51152.0,STARLINK-3364,PAYLOAD,2022-07-15 03:01:52,15.08839479,0.0002168,53.2162,175.715,45.3211,314.7958,0.00012079,1.635e-05,0.0,0 STARLINK-3364,1 51152U 22005BA  22196.12630479  .00001635  00000-0  12079-3 0  9992,2 51152  53.2162 175.7150 0002168  45.3211 314.7958 15.08839479 28386,6917.882,95.438,541.247,538.247,0.0
